[{"id":1,"name_cn":"快速消费品","name_en":"FMCG","parentId":0},{"id":2,"name_cn":"化妆品","name_en":"Skin Care & Cosmetics","parentId":0},{"id":3,"name_cn":"烟酒","name_en":"Liquor & Tabacco","parentId":0},{"id":4,"name_cn":"汽车","name_en":"Auto","parentId":0},{"id":5,"name_cn":"电器用品/家用电器","name_en":"Home Appliances","parentId":0},{"id":6,"name_cn":"药品及健康产品/医疗药品及健康","name_en":"Pharmaceutical and Healthcare","parentId":0},{"id":7,"name_cn":"服装及饰品","name_en":"Fashion and Accessories","parentId":0},{"id":8,"name_cn":"运输/快递","name_en":"Transportation & Express Services","parentId":0},{"id":9,"name_cn":"财务/投资/银行/金融服务","name_en":"Banking and Financial Services","parentId":0},{"id":10,"name_cn":"零售店","name_en":"Retail","parentId":0},{"id":11,"name_cn":"奢侈品","name_en":"Luxury","parentId":0},{"id":12,"name_cn":"信息与通讯","name_en":"IT & Telecom","parentId":0},{"id":13,"name_cn":"互联网科技","name_en":"Internet & Technology","parentId":0},{"id":14,"name_cn":"政府/社会/公益","name_en":"Society & Government ","parentId":0},{"id":15,"name_cn":"休闲娱乐","name_en":"Leisure & Entertainment","parentId":0},{"id":16,"name_cn":"其它","name_en":"Others","parentId":0},{"id":18,"name_cn":"食品","name_en":"Food","parentId":1},{"id":19,"name_cn":"家庭护理用品","name_en":"Household Care","parentId":1},{"id":20,"name_cn":"个人护理用品","name_en":"Personal Care","parentId":1},{"id":21,"name_cn":"婴儿用品","name_en":"Baby Care","parentId":1},{"id":22,"name_cn":"宠物用品","name_en":"Pet Care","parentId":1},{"id":23,"name_cn":"其他","name_en":"others","parentId":1},{"id":24,"name_cn":"女性护肤品","name_en":"Female skin care","parentId":2},{"id":25,"name_cn":"彩妆","name_en":"Cosmetics","parentId":2},{"id":26,"name_cn":"男性护肤品","name_en":"Male skin care","parentId":2},{"id":27,"name_cn":"婴儿/儿童护理产品","name_en":"Baby skin Care","parentId":2},{"id":28,"name_cn":"其他","name_en":"others","parentId":2},{"id":29,"name_cn":"烟草","name_en":"Tabacco","parentId":3},{"id":30,"name_cn":"洋酒","name_en":"Imported Spirit","parentId":3},{"id":31,"name_cn":"红酒、白葡萄酒","name_en":"Red Wine","parentId":3},{"id":32,"name_cn":"啤酒","name_en":"Beer","parentId":3},{"id":33,"name_cn":"中国白酒","name_en":"Chinese Spirit","parentId":3},{"id":34,"name_cn":"其他","name_en":"others","parentId":3},{"id":37,"name_cn":"摩托车","name_en":"Motocycle","parentId":4},{"id":38,"name_cn":"汽车配饰与服务","name_en":"Auto Accessories and Services","parentId":4},{"id":39,"name_cn":"其他","name_en":"others","parentId":4},{"id":40,"name_cn":"音响、视频设备","name_en":"A/V Equipment","parentId":5},{"id":42,"name_cn":"厨房电器","name_en":"Kitchen appliance","parentId":5},{"id":48,"name_cn":"办公电器","name_en":"Office equipment","parentId":5},{"id":51,"name_cn":"其他","name_en":"others","parentId":5},{"id":52,"name_cn":"保健营养品","name_en":"Nutrition","parentId":6},{"id":53,"name_cn":"健身设备","name_en":"Gym Equipment","parentId":6},{"id":54,"name_cn":"健身服务","name_en":"Fitness Service","parentId":6},{"id":56,"name_cn":"其他","name_en":"others","parentId":6},{"id":57,"name_cn":"时尚服装","name_en":"Fashion","parentId":7},{"id":58,"name_cn":"运动服饰与鞋帽","name_en":"Sports Apparel","parentId":7},{"id":60,"name_cn":"鞋袜类","name_en":"Shoe and sock","parentId":7},{"id":61,"name_cn":"袋/旅行箱/钱包","name_en":"Bag - mainstream","parentId":7},{"id":62,"name_cn":"眼镜","name_en":"Glasses","parentId":7},{"id":63,"name_cn":"手表-中低端","name_en":"Watch-mainstream","parentId":7},{"id":64,"name_cn":"配饰","name_en":"Accessory","parentId":7},{"id":65,"name_cn":"其他","name_en":"others","parentId":7},{"id":66,"name_cn":"航空","name_en":"Airline","parentId":8},{"id":67,"name_cn":"快递","name_en":"Express Service","parentId":8},{"id":69,"name_cn":"其他","name_en":"others","parentId":8},{"id":70,"name_cn":"银行","name_en":"Banking","parentId":9},{"id":71,"name_cn":"财务/投资","name_en":"Finance and Investment","parentId":9},{"id":72,"name_cn":"保险","name_en":"Insurance","parentId":9},{"id":73,"name_cn":"其他","name_en":"others","parentId":9},{"id":74,"name_cn":"时装店","name_en":"Fashion store","parentId":10},{"id":75,"name_cn":"商超","name_en":"Supermarket","parentId":10},{"id":76,"name_cn":"电器商城","name_en":"Electronics Retail Store","parentId":10},{"id":77,"name_cn":"餐饮店","name_en":"Restaurant","parentId":10},{"id":79,"name_cn":"其他","name_en":"others","parentId":10},{"id":80,"name_cn":"珠宝","name_en":"Jewellery","parentId":11},{"id":81,"name_cn":"手表","name_en":"Watch","parentId":11},{"id":82,"name_cn":"箱包皮具","name_en":"wallets / bags/ luggage bags","parentId":11},{"id":83,"name_cn":"香水","name_en":"Perfume","parentId":11},{"id":85,"name_cn":"其他","name_en":"others","parentId":11},{"id":86,"name_cn":"软件","name_en":"Software","parentId":12},{"id":87,"name_cn":"通讯网络","name_en":"Telecom Network","parentId":12},{"id":88,"name_cn":"讯通设备","name_en":"Communication Device","parentId":12},{"id":89,"name_cn":"其他","name_en":"others","parentId":12},{"id":90,"name_cn":"电子商务","name_en":"E-commerce","parentId":13},{"id":91,"name_cn":"互联网","name_en":"Internet","parentId":13},{"id":92,"name_cn":"网络游戏","name_en":"Online Game","parentId":13},{"id":94,"name_cn":"其他","name_en":"others","parentId":13},{"id":95,"name_cn":"教育及出国","name_en":"Education & Study Abroad","parentId":14},{"id":96,"name_cn":"政府机构","name_en":"Government","parentId":14},{"id":97,"name_cn":"组织","name_en":"Organization","parentId":14},{"id":98,"name_cn":"公益广告","name_en":"Public Ads","parentId":14},{"id":99,"name_cn":"其他","name_en":"others","parentId":14},{"id":100,"name_cn":"旅游","name_en":"Travel","parentId":15},{"id":101,"name_cn":"酒店","name_en":"Hotel","parentId":15},{"id":102,"name_cn":"演出活动","name_en":"Shows","parentId":15},{"id":103,"name_cn":"生活服务","name_en":"Living Services","parentId":15},{"id":104,"name_cn":"其他","name_en":"others","parentId":15},{"id":195,"name_cn":"其他","name_en":"others","parentId":16},{"id":196,"name_cn":"测试","name_en":"0","parentId":16},{"id":197,"name_cn":"消费电子","name_en":"Consumer electronics","parentId":0},{"id":198,"name_cn":"房地产","name_en":"Real Estate","parentId":0},{"id":199,"name_cn":"家居装饰","name_en":"Home Decoration","parentId":0},{"id":200,"name_cn":"水","name_en":"Water","parentId":1},{"id":201,"name_cn":"茶类/茶包/茶叶","name_en":"Tea/Tea Bags/Leaves","parentId":1},{"id":202,"name_cn":"即饮咖啡/速溶咖啡/咖啡豆/奶茶","name_en":"RTD Coffee/Coffee Bean/Milk Tea","parentId":1},{"id":203,"name_cn":"碳酸饮料","name_en":"Carbonated Soft Drinks","parentId":1},{"id":204,"name_cn":"果蔬类","name_en":"Fruit/Vegetable Juice","parentId":1},{"id":205,"name_cn":"运动健康/功能饮品","name_en":"Sports & Healthcare/Energy Drinks","parentId":1},{"id":206,"name_cn":"粉状冲剂/浓缩液（非奶类）","name_en":"Powder Drinks","parentId":1},{"id":207,"name_cn":"液态奶","name_en":"Liquid Milk","parentId":1},{"id":208,"name_cn":"奶粉","name_en":"Milk Powder","parentId":1},{"id":209,"name_cn":"酸奶","name_en":"Yogurt","parentId":1},{"id":210,"name_cn":"豪华车/跑车","name_en":"Auto - Luxury / Sports Car","parentId":4},{"id":211,"name_cn":"越野车","name_en":"SUV","parentId":4},{"id":212,"name_cn":"家用轿车","name_en":"Sedan Car","parentId":4},{"id":213,"name_cn":"客车","name_en":"Passenger Vehicle","parentId":4},{"id":214,"name_cn":"工程车","name_en":"Construction Vehicle","parentId":4},{"id":215,"name_cn":"摄影/摄像","name_en":"Photographic equipment","parentId":197},{"id":216,"name_cn":"电脑","name_en":"Computer","parentId":197},{"id":217,"name_cn":"电脑配件","name_en":"Computer accessories","parentId":197},{"id":218,"name_cn":"数码产品","name_en":"Consumer Electronics","parentId":197},{"id":219,"name_cn":"游戏机","name_en":"Gaming Consoles","parentId":197},{"id":220,"name_cn":"手机","name_en":"Mobile phone","parentId":197},{"id":221,"name_cn":"手机配件","name_en":"Mobile phone accessories","parentId":197},{"id":222,"name_cn":"其他","name_en":"others","parentId":197},{"id":223,"name_cn":"黑电","name_en":"Black Goods","parentId":5},{"id":224,"name_cn":"白电","name_en":"White Goods","parentId":5},{"id":225,"name_cn":"生活电器","name_en":"Household appliances","parentId":5},{"id":226,"name_cn":"个护健康","name_en":"Personal Care Appliance","parentId":5},{"id":227,"name_cn":"药品","name_en":"Drugs","parentId":6},{"id":228,"name_cn":"美容产品","name_en":"Cosmetic medicine","parentId":6},{"id":229,"name_cn":"商务正装","name_en":"Business Attire","parentId":7},{"id":230,"name_cn":"内衣","name_en":"Underwear","parentId":7},{"id":231,"name_cn":"童装","name_en":"Childrenwear","parentId":7},{"id":232,"name_cn":"铁路","name_en":"Railway","parentId":8},{"id":233,"name_cn":"公路","name_en":"Highway","parentId":8},{"id":234,"name_cn":"海洋","name_en":"Marine","parentId":8},{"id":235,"name_cn":"婚庆","name_en":"Wedding","parentId":15},{"id":236,"name_cn":"彩票","name_en":"Lottery","parentId":15},{"id":237,"name_cn":"商场","name_en":"Shopping Mall","parentId":198},{"id":238,"name_cn":"住宅","name_en":"Residential","parentId":198},{"id":239,"name_cn":"写字楼","name_en":"Office Building","parentId":198},{"id":240,"name_cn":"房产服务","name_en":"Property management service","parentId":198},{"id":241,"name_cn":"其他","name_en":"others","parentId":198},{"id":242,"name_cn":"家装建材","name_en":"Building material","parentId":199},{"id":243,"name_cn":"家具","name_en":"Furniture","parentId":199},{"id":244,"name_cn":"家纺","name_en":"Textiles","parentId":199},{"id":245,"name_cn":"灯具","name_en":"Lamps and Lanterns","parentId":199},{"id":246,"name_cn":"厨卫","name_en":"Kitchen & Bath Fixtures","parentId":199},{"id":247,"name_cn":"日常用品","name_en":"Daily necessities","parentId":199},{"id":248,"name_cn":"其他","name_en":"others","parentId":199},{"id":249,"name_cn":"玩具","name_en":"Toys","parentId":16},{"id":250,"name_cn":"乐器","name_en":"Musical Instrument","parentId":16},{"id":251,"name_cn":"农产品","name_en":"Agricultural Product","parentId":16},{"id":252,"name_cn":"工业","name_en":"Industrial Product","parentId":16},{"id":253,"name_cn":"化学化工","name_en":"Chemical industry","parentId":16}]